1 53741U 22107AT  22283.91668981  .00121082  00000-0  11616-2 0  9998
2 53741  53.2128  96.7119 0000400  23.8122 276.4326 15.65774902  5739